FENGYUN 1C DEB          
1 33639U 99025DDY 17345.93957802  .00000718  00000-0  35379-3 0  9998
2 33639  98.8777  33.5877 0068205 115.1664 245.6605 14.19491344189703
